ONEWEB-0461             
1 51649U 22012AD  25265.70596284  .00000017  00000+0  11067-4 0  9999
2 51649  87.9061  59.0416 0001860  96.7550 263.3794 13.17647260178669
ONEWEB-0463             
1 51650U 22012AE  25265.83927661 -.00000063  00000+0 -19652-3 0  9992
2 51650  87.9049  59.0731 0001696  91.6285 268.5041 13.17647199178464
ONEWEB-0464             
1 51651U 22012AF  25265.78166548 -.00000481  00000+0 -14142-2 0  9998
2 51651  87.8741  89.6109 0001315  89.9469 270.1809 13.10374790174300
ONEWEB-0468             
1 51652U 22012AG  25266.01738553 -.00000140  00000+0 -43732-3 0  9997
2 51652  87.8742  89.5559 0001485  88.8300 271.2997 13.10375740174317
ONEWEB-0473             
1 51653U 22012AH  25266.23150339 -.00000621  00000+0 -18165-2 0  9997
2 51653  87.8740  89.5165 0001591  84.0952 276.0356 13.10372586174348
ONEWEB-0474             
1 51654U 22012AJ  25266.22321646 -.00000415  00000+0 -12265-2 0  9994
2 51654  87.8742  89.4794 0001325  83.8597 276.2681 13.10372921174330
ONEWEB-0475             
1 51655U 22012AK  25265.69921873 -.00000637  00000+0 -16743-2 0  9994
2 51655  87.9056  59.0843 0001323  70.5174 289.6101 13.17650823178460
ONEWEB-0490             
1 54113U 22138A   25265.80456296  .00000002  00000+0 -27798-4 0  9999
2 54113  87.9290 358.1256 0001626 103.2608 256.8706 13.19723888141567
